CCSDS_OMM_VERS = 2.0
CREATION_DATE  = 
ORIGINATOR     = 

OBJECT_NAME    = STARLINK-34765
OBJECT_ID      = 2025-263X
CENTER_NAME    = EARTH
REF_FRAME      = TEME
TIME_SYSTEM    = UTC
MEAN_ELEMENT_THEORY = SGP/SGP4

EPOCH          = 2025-11-27T06:00:02.000160
MEAN_MOTION    = 15.87147876
ECCENTRICITY   = .00018275
INCLINATION    = 42.9981
RA_OF_ASC_NODE = 217.6476
ARG_OF_PERICENTER = 275.1884
MEAN_ANOMALY   = 150.9964

EPHEMERIS_TYPE = 0
CLASSIFICATION_TYPE = U
NORAD_CAT_ID   = 66506
ELEMENT_SET_NO = 999
REV_AT_EPOCH   = 314
BSTAR          = -.61283241E-2
MEAN_MOTION_DOT = -.143709E-1
MEAN_MOTION_DDOT = 0

CCSDS_OMM_VERS = 2.0
CREATION_DATE  = 
ORIGINATOR     = 

OBJECT_NAME    = STARLINK-34767
OBJECT_ID      = 2025-263Y
CENTER_NAME    = EARTH
REF_FRAME      = TEME
TIME_SYSTEM    = UTC
MEAN_ELEMENT_THEORY = SGP/SGP4

EPOCH          = 2025-11-27T06:00:02.000160
MEAN_MOTION    = 15.87150833
ECCENTRICITY   = .00019054
INCLINATION    = 42.9982
RA_OF_ASC_NODE = 217.6321
ARG_OF_PERICENTER = 276.3154
MEAN_ANOMALY   = 156.0315

EPHEMERIS_TYPE = 0
CLASSIFICATION_TYPE = U
NORAD_CAT_ID   = 66507
ELEMENT_SET_NO = 999
REV_AT_EPOCH   = 314
BSTAR          = -.64950369E-2
MEAN_MOTION_DOT = -.154365E-1
MEAN_MOTION_DDOT = 0

CCSDS_OMM_VERS = 2.0
CREATION_DATE  = 
ORIGINATOR     = 

OBJECT_NAME    = STARLINK-35608
OBJECT_ID      = 2025-263Z
CENTER_NAME    = EARTH
REF_FRAME      = TEME
TIME_SYSTEM    = UTC
MEAN_ELEMENT_THEORY = SGP/SGP4

EPOCH          = 2025-11-27T06:00:02.000160
MEAN_MOTION    = 15.87167844
ECCENTRICITY   = .000173
INCLINATION    = 42.9979
RA_OF_ASC_NODE = 217.6116
ARG_OF_PERICENTER = 273.3820
MEAN_ANOMALY   = 166.9106

EPHEMERIS_TYPE = 0
CLASSIFICATION_TYPE = U
NORAD_CAT_ID   = 66508
ELEMENT_SET_NO = 999
REV_AT_EPOCH   = 314
BSTAR          = -.70471054E-2
MEAN_MOTION_DOT = -.1658898E-1
MEAN_MOTION_DDOT = 0

CCSDS_OMM_VERS = 2.0
CREATION_DATE  = 
ORIGINATOR     = 

OBJECT_NAME    = STARLINK-35598
OBJECT_ID      = 2025-263AA
CENTER_NAME    = EARTH
REF_FRAME      = TEME
TIME_SYSTEM    = UTC
MEAN_ELEMENT_THEORY = SGP/SGP4

EPOCH          = 2025-11-27T06:00:02.000160
MEAN_MOTION    = 15.87009760
ECCENTRICITY   = .00017678
INCLINATION    = 42.9975
RA_OF_ASC_NODE = 217.5797
ARG_OF_PERICENTER = 272.5084
MEAN_ANOMALY   = 180.0910

EPHEMERIS_TYPE = 0
CLASSIFICATION_TYPE = U
NORAD_CAT_ID   = 66509
ELEMENT_SET_NO = 999
REV_AT_EPOCH   = 314
BSTAR          = -.73858135E-2
MEAN_MOTION_DOT = -.1715966E-1
MEAN_MOTION_DDOT = 0

CCSDS_OMM_VERS = 2.0
CREATION_DATE  = 
ORIGINATOR     = 

OBJECT_NAME    = STARLINK-35600
OBJECT_ID      = 2025-263AB
CENTER_NAME    = EARTH
REF_FRAME      = TEME
TIME_SYSTEM    = UTC
MEAN_ELEMENT_THEORY = SGP/SGP4

EPOCH          = 2025-11-27T06:00:02.000160
MEAN_MOTION    = 15.87109337
ECCENTRICITY   = .0001814
INCLINATION    = 42.9977
RA_OF_ASC_NODE = 217.6028
ARG_OF_PERICENTER = 275.3471
MEAN_ANOMALY   = 168.3061

EPHEMERIS_TYPE = 0
CLASSIFICATION_TYPE = U
NORAD_CAT_ID   = 66510
ELEMENT_SET_NO = 999
REV_AT_EPOCH   = 314
BSTAR          = -.7120357E-2
MEAN_MOTION_DOT = -.1669693E-1
MEAN_MOTION_DDOT = 0

CCSDS_OMM_VERS = 2.0
CREATION_DATE  = 
ORIGINATOR     = 

OBJECT_NAME    = STARLINK-35444
OBJECT_ID      = 2025-263AC
CENTER_NAME    = EARTH
REF_FRAME      = TEME
TIME_SYSTEM    = UTC
MEAN_ELEMENT_THEORY = SGP/SGP4

EPOCH          = 2025-11-27T06:00:02.000160
MEAN_MOTION    = 15.87038256
ECCENTRICITY   = .00017104
INCLINATION    = 42.9975
RA_OF_ASC_NODE = 217.5872
ARG_OF_PERICENTER = 278.0475
MEAN_ANOMALY   = 171.5750

EPHEMERIS_TYPE = 0
CLASSIFICATION_TYPE = U
NORAD_CAT_ID   = 66511
ELEMENT_SET_NO = 999
REV_AT_EPOCH   = 314
BSTAR          = -.72891624E-2
MEAN_MOTION_DOT = -.1698583E-1
MEAN_MOTION_DDOT = 0

CCSDS_OMM_VERS = 2.0
CREATION_DATE  = 
ORIGINATOR     = 

OBJECT_NAME    = STARLINK-35366
OBJECT_ID      = 2025-263AD
CENTER_NAME    = EARTH
REF_FRAME      = TEME
TIME_SYSTEM    = UTC
MEAN_ELEMENT_THEORY = SGP/SGP4

EPOCH          = 2025-11-27T06:00:02.000160
MEAN_MOTION    = 15.86947570
ECCENTRICITY   = .00017012
INCLINATION    = 42.9973
RA_OF_ASC_NODE = 217.5710
ARG_OF_PERICENTER = 273.9363
MEAN_ANOMALY   = 181.9813

EPHEMERIS_TYPE = 0
CLASSIFICATION_TYPE = U
NORAD_CAT_ID   = 66512
ELEMENT_SET_NO = 999
REV_AT_EPOCH   = 314
BSTAR          = -.74466344E-2
MEAN_MOTION_DOT = -.1723448E-1
MEAN_MOTION_DDOT = 0

CCSDS_OMM_VERS = 2.0
CREATION_DATE  = 
ORIGINATOR     = 

OBJECT_NAME    = STARLINK-35692
OBJECT_ID      = 2025-263AE
CENTER_NAME    = EARTH
REF_FRAME      = TEME
TIME_SYSTEM    = UTC
MEAN_ELEMENT_THEORY = SGP/SGP4

EPOCH          = 2025-11-27T06:00:02.000160
MEAN_MOTION    = 15.87063157
ECCENTRICITY   = .00018297
INCLINATION    = 42.9976
RA_OF_ASC_NODE = 217.5943
ARG_OF_PERICENTER = 275.3796
MEAN_ANOMALY   = 171.4925

EPHEMERIS_TYPE = 0
CLASSIFICATION_TYPE = U
NORAD_CAT_ID   = 66513
ELEMENT_SET_NO = 999
REV_AT_EPOCH   = 314
BSTAR          = -.72244912E-2
MEAN_MOTION_DOT = -.1687474E-1
MEAN_MOTION_DDOT = 0

CCSDS_OMM_VERS = 2.0
CREATION_DATE  = 
ORIGINATOR     = 

OBJECT_NAME    = SENTINEL-6B
OBJECT_ID      = 2025-264A
CENTER_NAME    = EARTH
REF_FRAME      = TEME
TIME_SYSTEM    = UTC
MEAN_ELEMENT_THEORY = SGP/SGP4

EPOCH          = 2025-11-27T01:39:42.499296
MEAN_MOTION    = 12.85876864
ECCENTRICITY   = .00114679
INCLINATION    = 66.0394
RA_OF_ASC_NODE = 195.1950
ARG_OF_PERICENTER = 269.4760
MEAN_ANOMALY   = 90.4944

EPHEMERIS_TYPE = 0
CLASSIFICATION_TYPE = U
NORAD_CAT_ID   = 66514
ELEMENT_SET_NO = 999
REV_AT_EPOCH   = 127
BSTAR          = .30870645E-3
MEAN_MOTION_DOT = .14E-6
MEAN_MOTION_DDOT = 0

CCSDS_OMM_VERS = 2.0
CREATION_DATE  = 
ORIGINATOR     = 

OBJECT_NAME    = SZ-21 MODULE
OBJECT_ID      = 2025-246C
CENTER_NAME    = EARTH
REF_FRAME      = TEME
TIME_SYSTEM    = UTC
MEAN_ELEMENT_THEORY = SGP/SGP4

EPOCH          = 2025-11-26T20:58:15.280608
MEAN_MOTION    = 15.61394026
ECCENTRICITY   = .0005009
INCLINATION    = 41.4759
RA_OF_ASC_NODE = 112.7499
ARG_OF_PERICENTER = 159.2058
MEAN_ANOMALY   = 200.8986

EPHEMERIS_TYPE = 0
CLASSIFICATION_TYPE = U
NORAD_CAT_ID   = 66515
ELEMENT_SET_NO = 999
REV_AT_EPOCH   = 196
BSTAR          = .32939E-3
MEAN_MOTION_DOT = .28683E-3
MEAN_MOTION_DDOT = 0

CCSDS_OMM_VERS = 2.0
CREATION_DATE  = 
ORIGINATOR     = 

OBJECT_NAME    = STARLINK-35924
OBJECT_ID      = 2025-265A
CENTER_NAME    = EARTH
REF_FRAME      = TEME
TIME_SYSTEM    = UTC
MEAN_ELEMENT_THEORY = SGP/SGP4

EPOCH          = 2025-11-27T06:00:02.000160
MEAN_MOTION    = 15.88483120
ECCENTRICITY   = .00018941
INCLINATION    = 43.0012
RA_OF_ASC_NODE = 147.0323
ARG_OF_PERICENTER = 275.0881
MEAN_ANOMALY   = 148.8147

EPHEMERIS_TYPE = 0
CLASSIFICATION_TYPE = U
NORAD_CAT_ID   = 66516
ELEMENT_SET_NO = 999
REV_AT_EPOCH   = 248
BSTAR          = -.51335971E-2
MEAN_MOTION_DOT = -.1305618E-1
MEAN_MOTION_DDOT = 0

CCSDS_OMM_VERS = 2.0
CREATION_DATE  = 
ORIGINATOR     = 

OBJECT_NAME    = STARLINK-35937
OBJECT_ID      = 2025-265B
CENTER_NAME    = EARTH
REF_FRAME      = TEME
TIME_SYSTEM    = UTC
MEAN_ELEMENT_THEORY = SGP/SGP4

EPOCH          = 2025-11-27T06:00:02.000160
MEAN_MOTION    = 15.88517053
ECCENTRICITY   = .0001896
INCLINATION    = 43.0014
RA_OF_ASC_NODE = 147.0278
ARG_OF_PERICENTER = 273.9938
MEAN_ANOMALY   = 151.8782

EPHEMERIS_TYPE = 0
CLASSIFICATION_TYPE = U
NORAD_CAT_ID   = 66517
ELEMENT_SET_NO = 999
REV_AT_EPOCH   = 250
BSTAR          = -.5128415E-2
MEAN_MOTION_DOT = -.1306439E-1
MEAN_MOTION_DDOT = 0

