STARLINK-34765          
1 66506U 25263X   25331.25002315 -.01437090  00000+0 -61283-2 0  9990
2 66506  42.9981 217.6476 0001827 275.1884 150.9964 15.87147876  3140
STARLINK-34767          
1 66507U 25263Y   25331.25002315 -.01543650  00000+0 -64950-2 0  9995
2 66507  42.9982 217.6321 0001905 276.3154 156.0315 15.87150833  3145
STARLINK-35608          
1 66508U 25263Z   25331.25002315 -.01658898  00000+0 -70471-2 0  9992
2 66508  42.9979 217.6116 0001730 273.3820 166.9106 15.87167844  3145
STARLINK-35598          
1 66509U 25263AA  25331.25002315 -.01715966  00000+0 -73858-2 0  9995
2 66509  42.9975 217.5797 0001767 272.5084 180.0910 15.87009760  3141
STARLINK-35600          
1 66510U 25263AB  25331.25002315 -.01669693  00000+0 -71204-2 0  9995
2 66510  42.9977 217.6028 0001814 275.3471 168.3061 15.87109337  3144
STARLINK-35444          
1 66511U 25263AC  25331.25002315 -.01698583  00000+0 -72892-2 0  9990
2 66511  42.9975 217.5872 0001710 278.0475 171.5750 15.87038256  3140
STARLINK-35366          
1 66512U 25263AD  25331.25002315 -.01723448  00000+0 -74466-2 0  9999
2 66512  42.9973 217.5710 0001701 273.9363 181.9813 15.86947570  3142
STARLINK-35692          
1 66513U 25263AE  25331.25002315 -.01687474  00000+0 -72245-2 0  9991
2 66513  42.9976 217.5943 0001829 275.3796 171.4925 15.87063157  3140
SENTINEL-6B             
1 66514U 25264A   25331.06924189  .00000014  00000+0  30871-3 0  9990
2 66514  66.0394 195.1950 0011467 269.4760  90.4944 12.85876864  1270
SZ-21 MODULE            
1 66515U 25246C   25330.87378797  .00028683  00000+0  32939-3 0  9996
2 66515  41.4759 112.7499 0005009 159.2058 200.8986 15.61394026  1968
STARLINK-35924          
1 66516U 25265A   25331.25002315 -.01305618  00000+0 -51336-2 0  9991
2 66516  43.0012 147.0323 0001894 275.0881 148.8147 15.88483120  2486
STARLINK-35937          
1 66517U 25265B   25331.25002315 -.01306439  00000+0 -51284-2 0  9996
2 66517  43.0014 147.0278 0001896 273.9938 151.8782 15.88517053  2505
